COMMENT,ORIGINATOR,NORAD_CAT_ID,OBJECT_NAME,OBJECT_TYPE,CLASSIFICATION_TYPE,INTLDES,EPOCH,EPOCH_MICROSECONDS,MEAN_MOTION,ECCENTRICITY,INCLINATION,RA_OF_ASC_NODE,ARG_OF_PERICENTER,MEAN_ANOMALY,EPHEMERIS_TYPE,ELEMENT_SET_NO,REV_AT_EPOCH,BSTAR,MEAN_MOTION_DOT,MEAN_MOTION_DDOT,FILE,TLE_LINE0,TLE_LINE1,TLE_LINE2,OBJECT_ID,OBJECT_NUMBER,SEMIMAJOR_AXIS,PERIOD,APOGEE,PERIGEE,DECAYED
"GENERATED VIA SPACETRACK.ORG API","18 SPCS","55099","SPACEBEE-156","PAYLOAD","U","23001CU","2023-06-17 13:59:34","368288","15.20086639","0.0014337","97.4766","228.6935","6.6311","353.5111","0","999","2516","0.00077658","0.00016769","0","3935881","0 SPACEBEE-156","1 55099U 23001CU  23168.58303667  .00016769  00000-0  77658-3 0  9997","2 55099  97.4766 228.6935 0014337   6.6311 353.5111 15.20086639 25162","2023-001CU","55099","6883.716","94.731","515.450","495.712","0"
"GENERATED VIA SPACETRACK.ORG API","18 SPCS","55099","SPACEBEE-156","PAYLOAD","U","23001CU","2023-06-17 13:59:34","368288","15.20086639","0.0014337","97.4766","228.6935","6.6311","353.5111","0","999","2516","0.00077658","0.00016769","0","3935891","0 SPACEBEE-156","1 55099U 23001CU  23168.58303667  .00016769  00000-0  77658-3 0  9997","2 55099  97.4766 228.6935 0014337   6.6311 353.5111 15.20086639 25162","2023-001CU","55099","6883.716","94.731","515.450","495.712","0"
"GENERATED VIA SPACETRACK.ORG API","18 SPCS","55099","SPACEBEE-156","PAYLOAD","U","23001CU","2023-06-18 10:31:51","146688","15.20115695","0.0014208","97.4766","229.5417","3.6491","356.4845","0","999","2529","0.00074683","0.00016135","0","3936420","0 SPACEBEE-156","1 55099U 23001CU  23169.43878642  .00016135  00000-0  74683-3 0  9994","2 55099  97.4766 229.5417 0014208   3.6491 356.4845 15.20115695 25295","2023-001CU","55099","6883.628","94.730","515.274","495.713","0"
"GENERATED VIA SPACETRACK.ORG API","18 SPCS","55099","SPACEBEE-156","PAYLOAD","U","23001CU","2023-06-18 15:16:13","284768","15.20122462","0.0014179","97.4765","229.7375","2.9647","357.1669","0","999","2532","0.00073307","0.00015839","0","3936735","0 SPACEBEE-156","1 55099U 23001CU  23169.63626487  .00015839  00000-0  73307-3 0  9996","2 55099  97.4765 229.7375 0014179   2.9647 357.1669 15.20122462 25327","2023-001CU","55099","6883.608","94.729","515.233","495.713","0"
"GENERATED VIA SPACETRACK.ORG API","18 SPCS","55099","SPACEBEE-156","PAYLOAD","U","23001CU","2023-06-18 15:16:13","284768","15.20122462","0.0014179","97.4765","229.7375","2.9647","357.1669","0","999","2532","0.00073307","0.00015839","0","3936745","0 SPACEBEE-156","1 55099U 23001CU  23169.63626487  .00015839  00000-0  73307-3 0  9996","2 55099  97.4765 229.7375 0014179   2.9647 357.1669 15.20122462 25327","2023-001CU","55099","6883.608","94.729","515.233","495.713","0"
"GENERATED VIA SPACETRACK.ORG API","18 SPCS","55099","SPACEBEE-156","PAYLOAD","U","23001CU","2023-06-19 02:19:44","674176","15.20137833","0.0014156","97.4766","230.1943","1.4959","358.6315","0","999","2539","0.00074099","0.00016018","0","3937338","0 SPACEBEE-156","1 55099U 23001CU  23170.09704484  .00016018  00000-0  74099-3 0  9991","2 55099  97.4766 230.1943 0014156   1.4959 358.6315 15.20137833 25399","2023-001CU","55099","6883.561","94.728","515.171","495.682","0"
"GENERATED VIA SPACETRACK.ORG API","18 SPCS","55099","SPACEBEE-156","PAYLOAD","U","23001CU","2023-06-19 03:54:31","974912","15.20140355","0.0014154","97.4765","230.2595","1.2688","358.858","0","999","2540","0.00074817","0.00016176","0","3937509","0 SPACEBEE-156","1 55099U 23001CU  23170.16287008  .00016176  00000-0  74817-3 0  9990","2 55099  97.4765 230.2595 0014154   1.2688 358.8580 15.20140355 25408","2023-001CU","55099","6883.554","94.728","515.162","495.676","0"
"GENERATED VIA SPACETRACK.ORG API","18 SPCS","55099","SPACEBEE-156","PAYLOAD","U","23001CU","2023-06-20 09:55:29","211456","15.20182742","0.0014029","97.476","231.4993","356.6121","3.5017","0","999","2559","0.00077845","0.00016855","0","3938098","0 SPACEBEE-156","1 55099U 23001CU  23171.41353254  .00016855  00000-0  77845-3 0  9994","2 55099  97.4760 231.4993 0014029 356.6121   3.5017 15.20182742 25593","2023-001CU","55099","6883.426","94.725","514.948","495.634","0"
"GENERATED VIA SPACETRACK.ORG API","18 SPCS","55099","SPACEBEE-156","PAYLOAD","U","23001CU","2023-06-20 09:55:29","211456","15.20182742","0.0014029","97.476","231.4993","356.6121","3.5017","0","999","2559","0.00077845","0.00016855","0","3938135","0 SPACEBEE-156","1 55099U 23001CU  23171.41353254  .00016855  00000-0  77845-3 0  9994","2 55099  97.4760 231.4993 0014029 356.6121   3.5017 15.20182742 25593","2023-001CU","55099","6883.426","94.725","514.948","495.634","0"
"GENERATED VIA SPACETRACK.ORG API","18 SPCS","55099","SPACEBEE-156","PAYLOAD","U","23001CU","2023-06-20 17:49:24","835584","15.20193457","0.0013995","97.4759","231.8257","355.3312","4.779","0","999","2564","0.00075681","0.00016388","0","3938544","0 SPACEBEE-156","1 55099U 23001CU  23171.74264856  .00016388  00000-0  75681-3 0  9996","2 55099  97.4759 231.8257 0013995 355.3312   4.7790 15.20193457 25649","2023-001CU","55099","6883.394","94.725","514.892","495.625","0"
"GENERATED VIA SPACETRACK.ORG API","18 SPCS","55099","SPACEBEE-156","PAYLOAD","U","23001CU","2023-06-21 09:37:15","357216","15.20218263","0.0013951","97.4756","232.4783","352.6961","7.4069","0","999","2574","0.00082106","0.00017801","0","3939133","0 SPACEBEE-156","1 55099U 23001CU  23172.40087219  .00017801  00000-0  82106-3 0  9997","2 55099  97.4756 232.4783 0013951 352.6961   7.4069 15.20218263 25742","2023-001CU","55099","6883.319","94.723","514.787","495.581","0"
"GENERATED VIA SPACETRACK.ORG API","18 SPCS","55099","SPACEBEE-156","PAYLOAD","U","23001CU","2023-06-21 15:56:23","360928","15.20226386","0.0013933","97.4756","232.7394","351.6254","8.4747","0","999","2578","0.00077847","0.00016876","0","3939355","0 SPACEBEE-156","1 55099U 23001CU  23172.66415927  .00016876  00000-0  77847-3 0  9993","2 55099  97.4756 232.7394 0013933 351.6254   8.4747 15.20226386 25780","2023-001CU","55099","6883.294","94.723","514.750","495.569","0"
"GENERATED VIA SPACETRACK.ORG API","18 SPCS","55099","SPACEBEE-156","PAYLOAD","U","23001CU","2023-06-22 17:12:53","906976","15.20266053","0.0013871","97.4756","233.7837","347.5743","12.5148","0","999","2594","0.00088377","0.00019196","0","3940257","0 SPACEBEE-156","1 55099U 23001CU  23173.71729059  .00019196  00000-0  88377-3 0  9992","2 55099  97.4756 233.7837 0013871 347.5743  12.5148 15.20266053 25945","2023-001CU","55099","6883.174","94.720","514.587","495.492","0"
"GENERATED VIA SPACETRACK.ORG API","18 SPCS","55099","SPACEBEE-156","PAYLOAD","U","23001CU","2023-06-24 02:23:15","237024","15.20321716","0.0013686","97.4757","235.154","342.6298","17.4467","0","999","2615","0.00091723","0.00019958","0","3941393","0 SPACEBEE-156","1 55099U 23001CU  23175.09948191  .00019958  00000-0  91723-3 0  9990","2 55099  97.4757 235.1540 0013686 342.6298  17.4467 15.20321716 26158","2023-001CU","55099","6883.006","94.717","514.292","495.451","0"
"GENERATED VIA SPACETRACK.ORG API","18 SPCS","55099","SPACEBEE-156","PAYLOAD","U","23001CU","2023-06-25 03:39:39","969216","15.20366508","0.0013596","97.4755","236.1979","338.5399","21.5265","0","999","2631","0.0010015","0.00021831","0","3942269","0 SPACEBEE-156","1 55099U 23001CU  23176.15254594  .00021831  00000-0  10015-2 0  9992","2 55099  97.4755 236.1979 0013596 338.5399  21.5265 15.20366508 26317","2023-001CU","55099","6882.871","94.714","514.094","495.378","0"
"GENERATED VIA SPACETRACK.ORG API","18 SPCS","55099","SPACEBEE-156","PAYLOAD","U","23001CU","2023-06-26 15:59:26","106432","15.20422455","0.0013495","97.4756","237.699","332.3896","27.6621","0","999","2654","0.00080458","0.00017543","0","3943697","0 SPACEBEE-156","1 55099U 23001CU  23177.66627438  .00017543  00000-0  80458-3 0  9994","2 55099  97.4756 237.6990 0013495 332.3896  27.6621 15.20422455 26541","2023-001CU","55099","6882.702","94.711","513.856","495.279","0"
"GENERATED VIA SPACETRACK.ORG API","18 SPCS","55099","SPACEBEE-156","PAYLOAD","U","23001CU","2023-06-27 17:15:45","34272","15.204587","0.0013489","97.4758","238.7432","328.519","31.5236","0","999","2670","0.00079174","0.00017279","0","3944562","0 SPACEBEE-156","1 55099U 23001CU  23178.71927123  .00017279  00000-0  79174-3 0  9994","2 55099  97.4758 238.7432 0013489 328.5190  31.5236 15.20458700 26709","2023-001CU","55099","6882.593","94.708","513.742","495.174","0"
"GENERATED VIA SPACETRACK.ORG API","18 SPCS","55099","SPACEBEE-156","PAYLOAD","U","23001CU","2023-06-29 04:00:37","715616","15.20503297","0.0013305","97.4763","240.1789","322.9846","37.047","0","999","2692","0.0006783","0.00014807","0","3945570","0 SPACEBEE-156","1 55099U 23001CU  23180.16710319  .00014807  00000-0  67830-3 0  9993","2 55099  97.4763 240.1789 0013305 322.9846  37.0470 15.20503297 26927","2023-001CU","55099","6882.458","94.705","513.481","495.166","0"
"GENERATED VIA SPACETRACK.ORG API","18 SPCS","55099","SPACEBEE-156","PAYLOAD","U","23001CU","2023-06-30 14:45:26","738784","15.20546539","0.0013227","97.4762","241.6149","317.385","42.6358","0","999","2714","0.00061812","0.00013501","0","3946329","0 SPACEBEE-156","1 55099U 23001CU  23181.61489281  .00013501  00000-0  61812-3 0  9999","2 55099  97.4762 241.6149 0013227 317.3850  42.6358 15.20546539 27146","2023-001CU","55099","6882.328","94.703","513.296","495.090","0"
"GENERATED VIA SPACETRACK.ORG API","18 SPCS","55099","SPACEBEE-156","PAYLOAD","U","23001CU","2023-07-02 01:30:12","532320","15.20583008","0.0013218","97.4761","243.0509","311.5525","48.4576","0","999","2736","0.00056946","0.00012444","0","3947468","0 SPACEBEE-156","1 55099U 23001CU  23183.06264505  .00012444  00000-0  56946-3 0  9997","2 55099  97.4761 243.0509 0013218 311.5525  48.4576 15.20583008 27368","2023-001CU","55099","6882.218","94.701","513.180","494.986","0"
